<?xml version="1.0" encoding="UTF-8"?>
<kml xmlns="http://www.opengis.net/kml/2.2" xmlns:gx="http://www.google.com/kml/ext/2.2">
  <Document id="1217">
    <Style id="1218">
      <LineStyle id="1219">
        <color>FF000000</color>
        <colorMode>normal</colorMode>
      </LineStyle>
    </Style>
    <Placemark id="1221">
      <name>317923</name>
      <styleUrl>#1218</styleUrl>
      <ExtendedData>
        <Data name="direction_id">
          <value>1</value>
        </Data>
        <Data name="trip_ids">
          <value>894910,894911,894912,894913,894914,894915,894916,894917,894918,894919,894920,894921,894922,894923,894924,894925,894926,894927,894928,894929,894931,894933,894934,894937,894938,894939,894940,894941,894942,894943,894944,894945,894946,894947,894948,894949,894950,894951,894952,894953,894954,894955,894956,894957,894958,894959,894960,894962,894963,894964,894965,894966,895041,895042,895043,895044,895045,895046,895047,895048,895049,895050,895051,895052,895053,895054,895055,895056,895057,895058,895059,895060,895061,895062,895063,895064,895065,895066,895067,895068,895069,895070,895071,895072,895073,895074,895078,895079,895099,895100,895101,895102,895103,895104,895105,895106,895107,895108,895109,895110,895112,895113,895114,895115,895116,895117</value>
        </Data>
        <Data name="service_id">
          <value>10,12,13</value>
        </Data>
      </ExtendedData>
      <LineString id="1220">
        <coordinates>-75.1479,39.9473,0.0 -75.149549,39.94748,0.0 -75.15267,39.9479,0.0 -75.157379,39.94846,0.0 -75.15896,39.948689,0.0 -75.16055,39.948879,0.0 -75.16121,39.94898,0.0 -75.16314,39.949219,0.0 -75.16428,39.94934,0.0 -75.17066,39.95015,0.0 -75.172169,39.950319,0.0 -75.172759,39.950409,0.0 -75.175729,39.9508,0.0 -75.17849,39.95115,0.0 -75.180989,39.951459,0.0 -75.181489,39.951489,0.0 -75.182579,39.95162,0.0 -75.181839,39.953089,0.0 -75.18089,39.95514,0.0 -75.180719,39.95556,0.0 -75.180579,39.955989,0.0 -75.18034,39.956859,0.0 -75.18024,39.95735,0.0 -75.18021,39.957689,0.0 -75.180219,39.958049,0.0 -75.180279,39.95844,0.0 -75.180399,39.958779,0.0 -75.18048,39.958959,0.0 -75.181129,39.960099,0.0 -75.181719,39.96095,0.0 -75.18236,39.961809,0.0 -75.182799,39.96231,0.0 -75.183839,39.96338,0.0 -75.18413,39.963699,0.0 -75.184769,39.964449,0.0 -75.185039,39.964719,0.0 -75.185529,39.965159,0.0 -75.18723,39.96655,0.0 -75.18768,39.966849,0.0 -75.18818,39.967129,0.0 -75.188559,39.967309,0.0 -75.190029,39.967939,0.0 -75.190399,39.968119,0.0 -75.19074,39.968309,0.0 -75.19142,39.96878,0.0 -75.191969,39.96926,0.0 -75.192419,39.96979,0.0 -75.19268,39.970179,0.0 -75.19289,39.970539,0.0 -75.192969,39.97071,0.0 -75.193239,39.971459,0.0 -75.194129,39.97446,0.0 -75.194269,39.974869,0.0 -75.19442,39.975229,0.0 -75.194529,39.975429,0.0 -75.194679,39.97563,0.0 -75.194949,39.97591,0.0 -75.19515,39.97608,0.0 -75.19537,39.976239,0.0 -75.19559,39.97637,0.0 -75.195879,39.976509,0.0 -75.196209,39.97663,0.0 -75.19654,39.97672,0.0 -75.19703,39.97682,0.0 -75.198629,39.97708,0.0 -75.199569,39.97728,0.0 -75.20009,39.97742,0.0 -75.200569,39.977579,0.0 -75.201199,39.97781,0.0 -75.20162,39.977999,0.0 -75.20204,39.978219,0.0 -75.202469,39.978469,0.0 -75.203359,39.979029,0.0 -75.20634,39.980999,0.0 -75.206739,39.98132,0.0 -75.207089,39.98165,0.0 -75.20742,39.982059,0.0 -75.207639,39.98237,0.0 -75.20774,39.98256,0.0 -75.207909,39.98294,0.0 -75.20807,39.98347,0.0 -75.20816,39.98401,0.0 -75.208179,39.98421,0.0 -75.2082,39.984879,0.0 -75.20814,39.98555,0.0 -75.20801,39.986219,0.0 -75.207859,39.98671,0.0 -75.207639,39.98726,0.0 -75.20733,39.98787,0.0 -75.206959,39.988449,0.0 -75.20625,39.9893,0.0 -75.205929,39.989619,0.0 -75.205289,39.99013,0.0 -75.20477,39.9905,0.0 -75.20432,39.990779,0.0 -75.20361,39.991159,0.0 -75.201689,39.99212,0.0 -75.201189,39.9924,0.0 -75.20023,39.99302,0.0 -75.19934,39.993679,0.0 -75.198939,39.99401,0.0 -75.19852,39.994399,0.0 -75.198129,39.99479,0.0 -75.19775,39.995199,0.0 -75.19739,39.99562,0.0 -75.196699,39.99652,0.0 -75.19644,39.996909,0.0 -75.195969,39.997719,0.0 -75.195659,39.998359,0.0 -75.19505,39.99994,0.0 -75.19473,40.001049,0.0 -75.194629,40.00149,0.0 -75.194499,40.002339,0.0 -75.194459,40.00299,0.0 -75.194489,40.00343,0.0 -75.194529,40.003659,0.0 -75.194669,40.004109,0.0 -75.194899,40.00453,0.0 -75.19497,40.00463,0.0 -75.19523,40.004949,0.0 -75.195489,40.00523,0.0 -75.19569,40.00542,0.0 -75.195879,40.005569,0.0 -75.196159,40.005759,0.0 -75.1965,40.00595,0.0 -75.19704,40.00623,0.0 -75.197689,40.00651,0.0 -75.19829,40.006749,0.0 -75.201119,40.00779,0.0 -75.20126,40.007889,0.0 -75.20171,40.008069,0.0 -75.202909,40.008609,0.0 -75.204029,40.009089,0.0 -75.204659,40.0094,0.0 -75.205689,40.00995,0.0 -75.20618,40.01022,0.0 -75.20631,40.01031,0.0 -75.20643,40.010429,0.0 -75.206459,40.010509,0.0 -75.20645,40.010709,0.0 -75.206149,40.01103,0.0 -75.205779,40.011339,0.0 -75.204759,40.01207,0.0 -75.204659,40.01217,0.0 -75.204579,40.01235,0.0 -75.204519,40.01244,0.0 -75.204489,40.01261,0.0 -75.204489,40.012749,0.0 -75.20455,40.01342,0.0 -75.204749,40.0139,0.0 -75.20483,40.01416,0.0 -75.204849,40.014389,0.0 -75.20532,40.014549,0.0 -75.20643,40.014819,0.0 -75.207121,40.015013,0.0 -75.2076,40.01516,0.0 -75.20834,40.01542,0.0 -75.209569,40.01594,0.0 -75.20996,40.01612,0.0 -75.211059,40.01668,0.0 -75.211319,40.01685,0.0 -75.211449,40.01711,0.0 -75.211449,40.01722,0.0 -75.21144,40.01739,0.0 -75.21131,40.01831,0.0 -75.210879,40.01938,0.0 -75.21077,40.01956,0.0 -75.21027,40.020139,0.0 -75.209699,40.021039,0.0 -75.209209,40.02191,0.0 -75.2091,40.022049,0.0 -75.20847,40.02269,0.0 -75.208119,40.023019,0.0 -75.208029,40.023129,0.0 -75.20774,40.02378,0.0 -75.20834,40.024909,0.0 -75.208529,40.0253,0.0 -75.210009,40.02804,0.0 -75.21058,40.02901,0.0 -75.211279,40.02999,0.0 -75.21212,40.03071,0.0 -75.213309,40.03181,0.0 -75.214519,40.032829,0.0 -75.214839,40.03315,0.0 -75.215859,40.03404,0.0 -75.21792,40.036159,0.0 -75.218079,40.0363,0.0 -75.21846,40.036529,0.0 -75.21945,40.03694,0.0 -75.220639,40.0373,0.0 -75.221849,40.037699,0.0 -75.22247,40.037959,0.0 -75.222799,40.038139,0.0 -75.222879,40.038219,0.0 -75.22327,40.038769,0.0 -75.22436,40.040219,0.0 -75.22484,40.0408,0.0 -75.22512,40.04117,0.0 -75.225639,40.04177,0.0 -75.22615,40.042299,0.0 -75.22641,40.04253,0.0 -75.228109,40.043619,0.0 -75.228779,40.04402,0.0 -75.2297,40.04441,0.0 -75.23114,40.044909,0.0 -75.23173,40.045169,0.0 -75.232199,40.04541,0.0 -75.232599,40.04568,0.0 -75.23326,40.04621,0.0 -75.2338,40.04666,0.0 -75.234769,40.047519,0.0 -75.23487,40.047689,0.0 -75.23542,40.048779,0.0 -75.235629,40.04924,0.0 -75.23578,40.04962,0.0 -75.236119,40.05063,0.0 -75.236199,40.0508,0.0 -75.236289,40.05106,0.0 -75.23632,40.05126,0.0 -75.23632,40.05158,0.0 -75.23623,40.052919,0.0 -75.23619,40.053249,0.0 -75.235949,40.05459,0.0 -75.235929,40.05484,0.0 -75.23592,40.05574,0.0 -75.235949,40.05619,0.0 -75.236039,40.05672,0.0 -75.236079,40.056869,0.0 -75.23615,40.057039,0.0 -75.236389,40.057409,0.0 -75.238229,40.059829,0.0 -75.23826,40.059939,0.0 -75.23839,40.06024,0.0 -75.238459,40.060459,0.0 -75.23849,40.06069,0.0 -75.23848,40.06089,0.0 -75.23844,40.06114,0.0 -75.238229,40.06193,0.0 -75.238139,40.06239,0.0 -75.23813,40.062519,0.0 -75.238179,40.062729,0.0 -75.238229,40.06283,0.0 -75.238459,40.06311,0.0 -75.238469,40.063159,0.0 -75.239169,40.063689,0.0 -75.23947,40.063969,0.0 -75.23964,40.064079,0.0 -75.239613,40.063772,0.0</coordinates>
      </LineString>
    </Placemark>
    <Style id="prod-detour-color">
      <LineStyle>
        <color>a0ff0000</color>
        <colorMode>normal</colorMode>
        <width>3</width>
      </LineStyle>
    </Style>
    <Style id="route-color">
      <LineStyle>
        <color>ff000000</color>
        <colorMode>normal</colorMode>
        <width>3</width>
      </LineStyle>
    </Style>
    <Style id="prod-unserved-color">
      <LineStyle>
        <color>ff0000ff</color>
        <colorMode>normal</colorMode>
        <width>3</width>
      </LineStyle>
    </Style>
    <Placemark id="detour">
      <name>PROD:DETOUR:D17345</name>
      <description>10/03/2026, 10:29:16 to 10/10/2026, 23:59:00</description>
      <styleUrl>#prod-detour-color</styleUrl>
      <LineString id="D17345">
        <coordinates>-75.1527,39.9479,0.0 -75.1523,39.9494,0.0 -75.1476,39.9489,0.0 -75.1484,39.945,0.0 -75.1484,39.9449,0.0 -75.1563,39.9459,0.0 -75.1563,39.9459,0.0 -75.1563,39.946,0.0 -75.1558,39.9483,0.0 -75.1565,39.9484,0.0 -75.1567,39.9472,0.0 -75.1534,39.9468,0.0 -75.1533,39.9476,0.0 -75.1527,39.9479,0.0</coordinates>
      </LineString>
    </Placemark>
    <Placemark id="unserved">
      <name>PROD:UNSERVERD:D17345</name>
      <description>10/03/2026, 10:29:16 to 10/10/2026, 23:59:00</description>
      <styleUrl>#prod-unserved-color</styleUrl>
      <LineString id="D17345">
        <coordinates>-75.1527,39.9479,0.0 -75.1527,39.9479,0.0</coordinates>
      </LineString>
    </Placemark>
    <Placemark id="detour">
      <name>PROD:DETOUR:D16646</name>
      <description>09/21/2026, 22:09:48 to 10/23/2026, 05:00:00</description>
      <styleUrl>#prod-detour-color</styleUrl>
      <LineString id="D16646">
        <coordinates>-75.1736,39.9505,0.0 -75.1738,39.9505,0.0 -75.1733,39.9529,0.0 -75.173,39.9546,0.0 -75.1805,39.9556,0.0 -75.1807,39.9557,0.0 -75.1806,39.956,0.0 -75.1807,39.956,0.0 -75.1809,39.9561,0.0 -75.1811,39.956,0.0 -75.1813,39.955,0.0 -75.1813,39.9548,0.0 -75.1811,39.9548,0.0 -75.1809,39.9551,0.0</coordinates>
      </LineString>
    </Placemark>
    <Placemark id="unserved">
      <name>PROD:UNSERVERD:D16646</name>
      <description>09/21/2026, 22:09:48 to 10/23/2026, 05:00:00</description>
      <styleUrl>#prod-unserved-color</styleUrl>
      <LineString id="D16646">
        <coordinates>-75.1736,39.9505,0.0 -75.1755,39.9508,0.0 -75.1772,39.951,0.0 -75.1783,39.9511,0.0 -75.1796,39.9513,0.0 -75.1826,39.9517,0.0 -75.1826,39.9518,0.0 -75.1826,39.9519,0.0 -75.182,39.9528,0.0 -75.1819,39.953,0.0 -75.1812,39.9545,0.0 -75.1809,39.9551,0.0</coordinates>
      </LineString>
    </Placemark>
    <Placemark id="detour">
      <name>PROD:DETOUR:D16944</name>
      <description>10/04/2026, 06:30:00 to 10/25/2026, 18:00:00</description>
      <styleUrl>#prod-detour-color</styleUrl>
      <LineString id="D16944">
        <coordinates>-75.1637,39.9493,0.0 -75.1642,39.9493,0.0 -75.1642,39.9495,0.0 -75.1639,39.9509,0.0 -75.1628,39.9507,0.0 -75.1631,39.9492,0.0 -75.1643,39.9494,0.0 -75.1648,39.9471,0.0 -75.1649,39.947,0.0 -75.165,39.947,0.0 -75.1778,39.9486,0.0 -75.1778,39.9486,0.0 -75.1773,39.9509,0.0 -75.177,39.9524,0.0 -75.177,39.9525,0.0 -75.1769,39.9525,0.0 -75.1656,39.9511,0.0 -75.1659,39.9496,0.0</coordinates>
      </LineString>
    </Placemark>
    <Placemark id="unserved">
      <name>PROD:UNSERVERD:D16944</name>
      <description>10/04/2026, 06:30:00 to 10/25/2026, 18:00:00</description>
      <styleUrl>#prod-unserved-color</styleUrl>
      <LineString id="D16944">
        <coordinates>-75.1637,39.9493,0.0 -75.1659,39.9496,0.0</coordinates>
      </LineString>
    </Placemark>
  </Document>
</kml>
