<?xml version="1.0" encoding="UTF-8"?>
<kml xmlns="http://www.opengis.net/kml/2.2" xmlns:gx="http://www.google.com/kml/ext/2.2">
  <Document id="1217">
    <Style id="1218">
      <LineStyle id="1219">
        <color>FF000000</color>
        <colorMode>normal</colorMode>
      </LineStyle>
    </Style>
    <Placemark id="1227">
      <name>317921</name>
      <styleUrl>#1218</styleUrl>
      <ExtendedData>
        <Data name="direction_id">
          <value>0</value>
        </Data>
        <Data name="trip_ids">
          <value>973646</value>
        </Data>
        <Data name="service_id">
          <value>10</value>
        </Data>
      </ExtendedData>
      <LineString id="1226">
        <coordinates>-75.2232,40.037943,0.0 -75.222799,40.038139,0.0 -75.22247,40.037959,0.0 -75.221849,40.037699,0.0 -75.220639,40.0373,0.0 -75.21945,40.03694,0.0 -75.21846,40.036529,0.0 -75.218079,40.0363,0.0 -75.21792,40.036159,0.0 -75.215859,40.03404,0.0 -75.214839,40.03315,0.0 -75.214519,40.032829,0.0 -75.213309,40.03181,0.0 -75.21212,40.03071,0.0 -75.211279,40.02999,0.0 -75.21058,40.02901,0.0 -75.210279,40.028509,0.0 -75.210009,40.02804,0.0 -75.208849,40.025899,0.0 -75.20774,40.02378,0.0 -75.208029,40.023129,0.0 -75.208119,40.023019,0.0 -75.20847,40.02269,0.0 -75.2091,40.022049,0.0 -75.209209,40.02191,0.0 -75.209699,40.021039,0.0 -75.21027,40.020139,0.0 -75.21077,40.01956,0.0 -75.210879,40.01938,0.0 -75.21131,40.01831,0.0 -75.21144,40.01739,0.0 -75.211449,40.01711,0.0 -75.211319,40.01685,0.0 -75.211229,40.01678,0.0 -75.211059,40.01668,0.0 -75.20996,40.01612,0.0 -75.209569,40.01594,0.0 -75.20834,40.01542,0.0 -75.2076,40.01516,0.0 -75.207121,40.015013,0.0 -75.20603,40.01472,0.0 -75.205829,40.014579,0.0 -75.20537,40.01435,0.0 -75.20528,40.014289,0.0 -75.20513,40.014119,0.0 -75.205029,40.013949,0.0 -75.20496,40.01369,0.0 -75.20495,40.013549,0.0 -75.20496,40.013129,0.0 -75.204979,40.012919,0.0 -75.204979,40.012669,0.0 -75.205,40.012569,0.0 -75.2051,40.012399,0.0 -75.205339,40.01218,0.0 -75.206559,40.0113,0.0 -75.20693,40.01101,0.0 -75.20716,40.010879,0.0 -75.20729,40.010529,0.0 -75.2073,40.010439,0.0 -75.207229,40.01022,0.0 -75.207129,40.010049,0.0 -75.20699,40.00993,0.0 -75.206769,40.009779,0.0 -75.206139,40.009449,0.0 -75.205649,40.009239,0.0 -75.20427,40.008709,0.0 -75.2032,40.008269,0.0 -75.19933,40.00685,0.0 -75.19844,40.006469,0.0 -75.19754,40.00597,0.0 -75.196839,40.00551,0.0 -75.19623,40.005009,0.0 -75.19604,40.004839,0.0 -75.195879,40.004659,0.0 -75.1956,40.004319,0.0 -75.19538,40.003939,0.0 -75.195219,40.003569,0.0 -75.1951,40.00319,0.0 -75.19506,40.003029,0.0 -75.19496,40.00219,0.0 -75.194979,40.00138,0.0 -75.19511,40.00055,0.0 -75.195209,40.00011,0.0 -75.19541,39.999459,0.0 -75.195659,39.998809,0.0 -75.19595,39.99814,0.0 -75.196299,39.997469,0.0 -75.19676,39.996749,0.0 -75.19689,39.99659,0.0 -75.197279,39.996039,0.0 -75.19754,39.99571,0.0 -75.198139,39.995039,0.0 -75.19889,39.99428,0.0 -75.199259,39.993959,0.0 -75.20019,39.993229,0.0 -75.20087,39.992779,0.0 -75.201919,39.992169,0.0 -75.20391,39.991179,0.0 -75.204519,39.99084,0.0 -75.205069,39.99047,0.0 -75.205469,39.990169,0.0 -75.20586,39.98985,0.0 -75.206239,39.9895,0.0 -75.206379,39.989349,0.0 -75.20685,39.988819,0.0 -75.207139,39.988449,0.0 -75.20739,39.98806,0.0 -75.20762,39.987649,0.0 -75.20783,39.98723,0.0 -75.20805,39.98669,0.0 -75.20824,39.98592,0.0 -75.20829,39.98563,0.0 -75.208349,39.98489,0.0 -75.20832,39.984139,0.0 -75.208259,39.98367,0.0 -75.2082,39.98338,0.0 -75.2081,39.983049,0.0 -75.207999,39.982789,0.0 -75.20784,39.98246,0.0 -75.207639,39.98213,0.0 -75.207319,39.981709,0.0 -75.20698,39.981359,0.0 -75.20679,39.981189,0.0 -75.206329,39.98084,0.0 -75.20531,39.98016,0.0 -75.202469,39.97832,0.0 -75.20198,39.978029,0.0 -75.201749,39.977909,0.0 -75.200969,39.977569,0.0 -75.200529,39.977409,0.0 -75.19997,39.97724,0.0 -75.199439,39.977109,0.0 -75.1969,39.97662,0.0 -75.19641,39.976499,0.0 -75.195849,39.97629,0.0 -75.19559,39.976149,0.0 -75.19529,39.975949,0.0 -75.195069,39.975769,0.0 -75.194799,39.97548,0.0 -75.19461,39.97521,0.0 -75.19451,39.975,0.0 -75.19433,39.97454,0.0 -75.193409,39.97157,0.0 -75.193139,39.97077,0.0 -75.192929,39.97032,0.0 -75.192569,39.969749,0.0 -75.1924,39.969549,0.0 -75.19186,39.96899,0.0 -75.19118,39.96845,0.0 -75.190629,39.9681,0.0 -75.190119,39.967839,0.0 -75.18979,39.967689,0.0 -75.18894,39.96735,0.0 -75.188419,39.967119,0.0 -75.187839,39.9668,0.0 -75.18732,39.96645,0.0 -75.18597,39.965349,0.0 -75.185179,39.96465,0.0 -75.184559,39.96401,0.0 -75.183969,39.96331,0.0 -75.183879,39.9632,0.0 -75.183789,39.962979,0.0 -75.18341,39.96234,0.0 -75.1829,39.961569,0.0 -75.182699,39.961299,0.0 -75.182429,39.961029,0.0 -75.182019,39.96053,0.0 -75.18114,39.959579,0.0 -75.18096,39.95935,0.0 -75.180819,39.95899,0.0 -75.18078,39.958849,0.0 -75.18075,39.9587,0.0 -75.18074,39.95854,0.0 -75.18075,39.958299,0.0 -75.181039,39.956889,0.0 -75.181749,39.956959,0.0 -75.182529,39.957069,0.0 -75.182709,39.957049,0.0 -75.182789,39.957,0.0 -75.182839,39.956939,0.0 -75.183239,39.95485,0.0 -75.1834,39.95487,0.0 -75.183739,39.9533,0.0 -75.181889,39.953089,0.0 -75.18152,39.95307,0.0 -75.17818,39.952639,0.0 -75.17539,39.95231,0.0 -75.17036,39.951659,0.0 -75.16877,39.951469,0.0 -75.167179,39.95125,0.0 -75.16395,39.95087,0.0</coordinates>
      </LineString>
    </Placemark>
    <Placemark id="1233">
      <name>317920</name>
      <styleUrl>#1218</styleUrl>
      <ExtendedData>
        <Data name="direction_id">
          <value>0</value>
        </Data>
        <Data name="trip_ids">
          <value>894860,894861,894862,894863,894864,894865,894866,894867,894868,894869,894870,894871,894872,894873,894874,894875,894876,894877,894878,894879,894880,894881,894882,894883,894884,894885,894886,894887,894888,894889,894890,894891,894892,894893,894894,894895,894896,894897,894898,894899,894900,894901,894902,894903,894904,894905,894906,894907,894908,895005,895006,895007,895008,895009,895010,895011,895012,895013,895014,895015,895016,895017,895018,895019,895020,895021,895022,895023,895024,895025,895026,895027,895028,895029,895030,895031,895032,895033,895034,895035,895036,895037,895038,895039,895040,895080,895081,895082,895083,895084,895085,895086,895087,895088,895089,895090,895091,895092,895093,895094,895095,895096,996841,999110</value>
        </Data>
        <Data name="service_id">
          <value>10,12,13</value>
        </Data>
      </ExtendedData>
      <LineString id="1232">
        <coordinates>-75.239613,40.063772,0.0 -75.239489,40.06319,0.0 -75.23938,40.06256,0.0 -75.23903,40.061369,0.0 -75.23884,40.060819,0.0 -75.23857,40.06031,0.0 -75.23848,40.060179,0.0 -75.237519,40.05888,0.0 -75.236389,40.057409,0.0 -75.23615,40.057039,0.0 -75.236079,40.056869,0.0 -75.236039,40.05672,0.0 -75.235949,40.05619,0.0 -75.23592,40.05574,0.0 -75.235929,40.05484,0.0 -75.235949,40.05459,0.0 -75.23619,40.053249,0.0 -75.23623,40.052919,0.0 -75.23632,40.05158,0.0 -75.23632,40.05126,0.0 -75.236289,40.05106,0.0 -75.236199,40.0508,0.0 -75.236119,40.05063,0.0 -75.23578,40.04962,0.0 -75.235629,40.04924,0.0 -75.23542,40.048779,0.0 -75.23487,40.047689,0.0 -75.234769,40.047519,0.0 -75.2338,40.04666,0.0 -75.23326,40.04621,0.0 -75.232599,40.04568,0.0 -75.232199,40.04541,0.0 -75.23173,40.045169,0.0 -75.23114,40.044909,0.0 -75.2297,40.04441,0.0 -75.228779,40.04402,0.0 -75.228109,40.043619,0.0 -75.22641,40.04253,0.0 -75.22615,40.042299,0.0 -75.225639,40.04177,0.0 -75.22512,40.04117,0.0 -75.22484,40.0408,0.0 -75.22436,40.040219,0.0 -75.22327,40.038769,0.0 -75.222879,40.038219,0.0 -75.222799,40.038139,0.0 -75.22247,40.037959,0.0 -75.221849,40.037699,0.0 -75.220639,40.0373,0.0 -75.21945,40.03694,0.0 -75.21846,40.036529,0.0 -75.218079,40.0363,0.0 -75.21792,40.036159,0.0 -75.215859,40.03404,0.0 -75.214839,40.03315,0.0 -75.214519,40.032829,0.0 -75.213309,40.03181,0.0 -75.21212,40.03071,0.0 -75.211279,40.02999,0.0 -75.21058,40.02901,0.0 -75.210009,40.02804,0.0 -75.208529,40.0253,0.0 -75.20834,40.024909,0.0 -75.20774,40.02378,0.0 -75.208029,40.023129,0.0 -75.208119,40.023019,0.0 -75.20847,40.02269,0.0 -75.2091,40.022049,0.0 -75.209209,40.02191,0.0 -75.209699,40.021039,0.0 -75.21027,40.020139,0.0 -75.21077,40.01956,0.0 -75.210879,40.01938,0.0 -75.21131,40.01831,0.0 -75.21144,40.01739,0.0 -75.211449,40.01722,0.0 -75.211449,40.01711,0.0 -75.211319,40.01685,0.0 -75.211059,40.01668,0.0 -75.20996,40.01612,0.0 -75.209569,40.01594,0.0 -75.20834,40.01542,0.0 -75.2076,40.01516,0.0 -75.207121,40.015013,0.0 -75.20603,40.01472,0.0 -75.205829,40.014579,0.0 -75.20537,40.01435,0.0 -75.20528,40.014289,0.0 -75.20513,40.014119,0.0 -75.205029,40.013949,0.0 -75.20496,40.01369,0.0 -75.20495,40.013549,0.0 -75.20496,40.013129,0.0 -75.204979,40.012919,0.0 -75.204979,40.012669,0.0 -75.205,40.012569,0.0 -75.2051,40.012399,0.0 -75.205339,40.01218,0.0 -75.206559,40.0113,0.0 -75.20693,40.01101,0.0 -75.20716,40.010879,0.0 -75.20729,40.010529,0.0 -75.2073,40.010439,0.0 -75.207229,40.01022,0.0 -75.207129,40.010049,0.0 -75.20699,40.00993,0.0 -75.206769,40.009779,0.0 -75.206139,40.009449,0.0 -75.205649,40.009239,0.0 -75.20427,40.008709,0.0 -75.2032,40.008269,0.0 -75.19933,40.00685,0.0 -75.19844,40.006469,0.0 -75.19754,40.00597,0.0 -75.196839,40.00551,0.0 -75.19604,40.004839,0.0 -75.1956,40.004319,0.0 -75.19538,40.003939,0.0 -75.195219,40.003569,0.0 -75.19506,40.003029,0.0 -75.19496,40.00219,0.0 -75.194979,40.00138,0.0 -75.195069,40.000769,0.0 -75.195209,40.00011,0.0 -75.19541,39.999459,0.0 -75.195659,39.998809,0.0 -75.19595,39.99814,0.0 -75.196299,39.997469,0.0 -75.196519,39.997109,0.0 -75.19676,39.996749,0.0 -75.19689,39.99659,0.0 -75.197279,39.996039,0.0 -75.19754,39.99571,0.0 -75.198139,39.995039,0.0 -75.19889,39.99428,0.0 -75.199259,39.993959,0.0 -75.20019,39.993229,0.0 -75.20087,39.992779,0.0 -75.201919,39.992169,0.0 -75.20391,39.991179,0.0 -75.204519,39.99084,0.0 -75.205069,39.99047,0.0 -75.205469,39.990169,0.0 -75.20586,39.98985,0.0 -75.206239,39.9895,0.0 -75.206379,39.989349,0.0 -75.20685,39.988819,0.0 -75.207139,39.988449,0.0 -75.20739,39.98806,0.0 -75.20762,39.987649,0.0 -75.20783,39.98723,0.0 -75.20805,39.98669,0.0 -75.20824,39.98592,0.0 -75.20829,39.98563,0.0 -75.208349,39.98489,0.0 -75.20832,39.984139,0.0 -75.20823,39.983499,0.0 -75.20816,39.983229,0.0 -75.20805,39.98291,0.0 -75.20784,39.98246,0.0 -75.20774,39.98228,0.0 -75.20744,39.98186,0.0 -75.20716,39.981539,0.0 -75.20679,39.981189,0.0 -75.20604,39.980639,0.0 -75.202469,39.97832,0.0 -75.20198,39.978029,0.0 -75.201749,39.977909,0.0 -75.200969,39.977569,0.0 -75.200529,39.977409,0.0 -75.19997,39.97724,0.0 -75.199439,39.977109,0.0 -75.1969,39.97662,0.0 -75.19641,39.976499,0.0 -75.195849,39.97629,0.0 -75.19559,39.976149,0.0 -75.19529,39.975949,0.0 -75.195069,39.975769,0.0 -75.194799,39.97548,0.0 -75.19461,39.97521,0.0 -75.19451,39.975,0.0 -75.19433,39.97454,0.0 -75.193409,39.97157,0.0 -75.193139,39.97077,0.0 -75.192929,39.97032,0.0 -75.192569,39.969749,0.0 -75.1924,39.969549,0.0 -75.19186,39.96899,0.0 -75.19118,39.96845,0.0 -75.190629,39.9681,0.0 -75.190119,39.967839,0.0 -75.18979,39.967689,0.0 -75.18894,39.96735,0.0 -75.188419,39.967119,0.0 -75.187839,39.9668,0.0 -75.18732,39.96645,0.0 -75.18597,39.965349,0.0 -75.185179,39.96465,0.0 -75.184559,39.96401,0.0 -75.183969,39.96331,0.0 -75.183879,39.9632,0.0 -75.183789,39.962979,0.0 -75.18341,39.96234,0.0 -75.1829,39.961569,0.0 -75.182699,39.961299,0.0 -75.182429,39.961029,0.0 -75.182019,39.96053,0.0 -75.18114,39.959579,0.0 -75.18096,39.95935,0.0 -75.180819,39.95899,0.0 -75.18078,39.958849,0.0 -75.18075,39.9587,0.0 -75.18074,39.95854,0.0 -75.18075,39.958299,0.0 -75.181039,39.956889,0.0 -75.181749,39.956959,0.0 -75.182529,39.957069,0.0 -75.182709,39.957049,0.0 -75.182789,39.957,0.0 -75.182839,39.956939,0.0 -75.183239,39.95485,0.0 -75.1834,39.95487,0.0 -75.183739,39.9533,0.0 -75.181889,39.953089,0.0 -75.18152,39.95307,0.0 -75.17818,39.952639,0.0 -75.17539,39.95231,0.0 -75.17036,39.951659,0.0 -75.16877,39.951469,0.0 -75.167179,39.95125,0.0 -75.16176,39.9506,0.0 -75.160199,39.950379,0.0 -75.158619,39.950209,0.0 -75.156209,39.94992,0.0 -75.15234,39.949409,0.0 -75.14759,39.94883,0.0 -75.1479,39.9473,0.0</coordinates>
      </LineString>
    </Placemark>
    <Style id="prod-detour-color">
      <LineStyle>
        <color>a0ff0000</color>
        <colorMode>normal</colorMode>
        <width>3</width>
      </LineStyle>
    </Style>
    <Style id="route-color">
      <LineStyle>
        <color>ff000000</color>
        <colorMode>normal</colorMode>
        <width>3</width>
      </LineStyle>
    </Style>
    <Style id="prod-unserved-color">
      <LineStyle>
        <color>ff0000ff</color>
        <colorMode>normal</colorMode>
        <width>3</width>
      </LineStyle>
    </Style>
    <Placemark id="detour">
      <name>PROD:DETOUR:D17603</name>
      <description>10/07/2026, 19:27:22 to 10/08/2026, 05:00:00</description>
      <styleUrl>#prod-detour-color</styleUrl>
      <LineString id="D17603">
        <coordinates>-75.2354,40.0488,0.0 -75.2336,40.0496,0.0 -75.2271,40.0526,0.0 -75.227,40.0524,0.0 -75.2263,40.0521,0.0 -75.2192,40.0488,0.0 -75.2187,40.0485,0.0 -75.2183,40.0481,0.0 -75.218,40.0477,0.0 -75.2179,40.0473,0.0 -75.2178,40.0461,0.0 -75.2204,40.0449,0.0 -75.2207,40.0447,0.0 -75.2208,40.0448,0.0 -75.2229,40.0454,0.0 -75.2234,40.045,0.0 -75.2275,40.0432,0.0 -75.2291,40.0442,0.0 -75.2317,40.0452,0.0</coordinates>
      </LineString>
    </Placemark>
    <Placemark id="unserved">
      <name>PROD:UNSERVERD:D17603</name>
      <description>10/07/2026, 19:27:22 to 10/08/2026, 05:00:00</description>
      <styleUrl>#prod-unserved-color</styleUrl>
      <LineString id="D17603">
        <coordinates>-75.2354,40.0488,0.0 -75.2349,40.0477,0.0 -75.2347,40.0474,0.0 -75.2332,40.0462,0.0 -75.2326,40.0457,0.0 -75.2322,40.0455,0.0 -75.2317,40.0452,0.0</coordinates>
      </LineString>
    </Placemark>
  </Document>
</kml>
